[
  {
    "BusinessNames": "30 Minute Hit",
    "Address": "6410 32nd Ave. NW",
    "Address2": "",
    "City": "Seattle",
    "State": "WA",
    "zip": 98107,
    "Long": -122.3981961,
    "Lat": 47.6755526,
    "gid": 1
  },
  {
    "BusinessNames": "A DJ and a Cook",
    "Address": "5608 Rainier Ave. S",
    "Address2": "",
    "City": "Seattle",
    "State": "WA",
    "zip": 98118,
    "Long": -122.2776412,
    "Lat": 47.5516873,
    "gid": 2
  },
  {
    "BusinessNames": "AAMCO Transmissions of Seattle",
    "Address": "2107 23rd Ave. S",
    "Address2": "",
    "City": "Seattle",
    "State": "WA",
    "zip": 98144,
    "Long": -122.3033737,
    "Lat": 47.5840885,
    "gid": 3
  },
  {
    "BusinessNames": "Abdul Gafoor's Halal Meat & Deli",
    "Address": "6053 Martin Luther King Way Jr S",
    "Address2": "",
    "City": "Seattle",
    "State": "WA",
    "zip": 98118,
    "Long": -122.2864071,
    "Lat": 47.5465123,
    "gid": 4
  },
  {
    "BusinessNames": "Ace Barbershop",
    "Address": "819 E Denny Way",
    "Address2": "",
    "City": "Seattle",
    "State": "WA",
    "zip": 98122,
    "Long": -122.3210448,
    "Lat": 47.6186163,
    "gid": 5
  },
  {
    "BusinessNames": "Acme Barbershop",
    "Address": "103 Bellevue Ave. E",
    "Address2": "",
    "City": "Seattle",
    "State": "WA",
    "zip": 98102,
    "Long": -122.3271159,
    "Lat": 47.6187413,
    "gid": 6
  },
  {
    "BusinessNames": "Adarash Market",
    "Address": "3621 33rd Ave. S",
    "Address2": "#C10",
    "City": "Seattle",
    "State": "WA",
    "zip": 98144,
    "Long": -122.2915097,
    "Lat": 47.5709905,
    "gid": 7
  },
  {
    "BusinessNames": "Addis Market",
    "Address": "13500 Aurora Ave. N",
    "Address2": "#B",
    "City": "Seattle",
    "State": "WA",
    "zip": 98133,
    "Long": -122.3444988,
    "Lat": 47.7270224,
    "gid": 8
  },
  {
    "BusinessNames": "Al Shukri Bakery",
    "Address": "5600 Delridge Way SW",
    "Address2": "",
    "City": "Seattle",
    "State": "WA",
    "zip": 98106,
    "Long": -122.3627538,
    "Lat": 47.5517843,
    "gid": 9
  },
  {
    "BusinessNames": "All in the Cut Barbershop",
    "Address": "5120 S Fisher Place",
    "Address2": "",
    "City": "Seattle",
    "State": "WA",
    "zip": 98118,
    "Long": -122.2693649,
    "Lat": 47.5215074,
    "gid": 10
  },
  {
    "BusinessNames": "Alyssa McCowan, Barber",
    "Address": "1917 Second Ave.",
    "Address2": "",
    "City": "Seattle",
    "State": "WA",
    "zip": 98101,
    "Long": -122.3413144,
    "Lat": 47.6111587,
    "gid": 11
  },
  {
    "BusinessNames": "Ambakity Cocina Mexicana",
    "Address": "8515 14th Ave. S",
    "Address2": "",
    "City": "Seattle",
    "State": "WA",
    "zip": 98108,
    "Long": -122.3151435,
    "Lat": 47.5268031,
    "gid": 12
  },
  {
    "BusinessNames": "Amina Family Childcare",
    "Address": "4638 S Othello St.",
    "Address2": "",
    "City": "Seattle",
    "State": "WA",
    "zip": 98118,
    "Long": -122.2736367,
    "Lat": 47.5371446,
    "gid": 13
  },
  {
    "BusinessNames": "Amy's Merkato",
    "Address": "5710 Rainier Ave. S",
    "Address2": "",
    "City": "Seattle",
    "State": "WA",
    "zip": 98118,
    "Long": -122.2771698,
    "Lat": 47.5509558,
    "gid": 14
  },
  {
    "BusinessNames": "An Nam Pho",
    "Address": "6510 Roosevelt Way NE",
    "Address2": "",
    "City": "Seattle",
    "State": "WA",
    "zip": 98115,
    "Long": -122.3170385,
    "Lat": 47.6763209,
    "gid": 15
  },
  {
    "BusinessNames": "Andro Barbershop",
    "Address": "219 James St.",
    "Address2": "",
    "City": "Seattle",
    "State": "WA",
    "zip": 98104,
    "Long": -122.3316758,
    "Lat": 47.602505,
    "gid": 16
  },
  {
    "BusinessNames": "Arcaro Boxing Gym",
    "Address": "1208 East Jefferson St.",
    "Address2": "",
    "City": "Seattle",
    "State": "WA",
    "zip": 98122,
    "Long": -122.3163923,
    "Lat": 47.6064514,
    "gid": 17
  },
  {
    "BusinessNames": "Ascend Nail Lounge",
    "Address": "803 Fifth Ave. N",
    "Address2": "",
    "City": "Seattle",
    "State": "WA",
    "zip": 98109,
    "Long": -122.3479422,
    "Lat": 47.6264817,
    "gid": 18
  },
  {
    "BusinessNames": "Asian Star",
    "Address": "6951 Martin Luther King Jr Way S",
    "Address2": "Suite #107",
    "City": "Seattle",
    "State": "WA",
    "zip": 98118,
    "Long": -122.2832501,
    "Lat": 47.5392448,
    "gid": 19
  },
  {
    "BusinessNames": "Asian Street Food",
    "Address": "5600 Delridge Way SW",
    "Address2": "",
    "City": "Seattle",
    "State": "WA",
    "zip": 98106,
    "Long": -122.3627538,
    "Lat": 47.5517843,
    "gid": 20
  },
  {
    "BusinessNames": "Athena's Food Truck",
    "Address": "401 Terry Ave.",
    "Address2": "",
    "City": "Seattle",
    "State": "WA",
    "zip": 98104,
    "Long": -122.3224288,
    "Lat": 47.604644,
    "gid": 21
  },
  {
    "BusinessNames": "Athina Grill",
    "Address": "528 Queen Anne Ave. N",
    "Address2": "",
    "City": "Seattle",
    "State": "WA",
    "zip": 98109,
    "Long": -122.356595,
    "Lat": 47.6241673,
    "gid": 22
  },
  {
    "BusinessNames": "Atlantis Studio & Gallery",
    "Address": "1501 Pike Place",
    "Address2": "#314",
    "City": "Seattle",
    "State": "WA",
    "zip": 98101,
    "Long": -122.3407369,
    "Lat": 47.6086274,
    "gid": 23
  },
  {
    "BusinessNames": "Baja Tacos and Beer",
    "Address": "9211 Holman Rd. NW",
    "Address2": "",
    "City": "Seattle",
    "State": "WA",
    "zip": 98117,
    "Long": -122.3722285,
    "Lat": 47.6968783,
    "gid": 24
  },
  {
    "BusinessNames": "Baltimore Barbershop",
    "Address": "5811 Rainier Ave. S",
    "Address2": "",
    "City": "Seattle",
    "State": "WA",
    "zip": 98118,
    "Long": -122.2775221,
    "Lat": 47.5501646,
    "gid": 25
  },
  {
    "BusinessNames": "Bamboo Thai Cuisine",
    "Address": "1841 42nd Ave. E",
    "Address2": "",
    "City": "Seattle",
    "State": "WA",
    "zip": 98112,
    "Long": -122.2787966,
    "Lat": 47.6358465,
    "gid": 26
  },
  {
    "BusinessNames": "Bambu Desserts and Drinks",
    "Address": "516 Seventh Ave. S",
    "Address2": "Unit A",
    "City": "Seattle",
    "State": "WA",
    "zip": 98104,
    "Long": -122.3235724,
    "Lat": 47.5978765,
    "gid": 27
  },
  {
    "BusinessNames": "Bananas Grill",
    "Address": "4556 Martin Luther King Jr Way S",
    "Address2": "",
    "City": "Seattle",
    "State": "WA",
    "zip": 98108,
    "Long": -122.2937675,
    "Lat": 47.5620445,
    "gid": 28
  },
  {
    "BusinessNames": "Basil Viet Kitchen",
    "Address": "4002 University Way NE",
    "Address2": "",
    "City": "Seattle",
    "State": "WA",
    "zip": 98105,
    "Long": -122.3131258,
    "Lat": 47.6554546,
    "gid": 29
  },
  {
    "BusinessNames": "Beacon Hill Drycleaners",
    "Address": "4858 Beacon Ave. S",
    "Address2": "",
    "City": "Seattle",
    "State": "WA",
    "zip": 98108,
    "Long": -122.303843,
    "Lat": 47.559103,
    "gid": 30
  },
  {
    "BusinessNames": "BeanFish",
    "Address": "710 Sixth Ave. S",
    "Address2": "",
    "City": "Seattle",
    "State": "WA",
    "zip": 98104,
    "Long": -122.326233,
    "Lat": 47.5963275,
    "gid": 31
  },
  {
    "BusinessNames": "Belltown Romios Pizza & Pasta",
    "Address": "2801 Western Ave.",
    "Address2": "Suite E",
    "City": "Seattle",
    "State": "WA",
    "zip": 98121,
    "Long": -122.3532297,
    "Lat": 47.6157789,
    "gid": 32
  },
  {
    "BusinessNames": "Big Tuna",
    "Address": "4336 Roosevelt Way NE",
    "Address2": "#B",
    "City": "Seattle",
    "State": "WA",
    "zip": 98105,
    "Long": -122.3174788,
    "Lat": 47.6610115,
    "gid": 33
  },
  {
    "BusinessNames": "Bilal Mini Market",
    "Address": "5041 Rainier Ave. S",
    "Address2": "",
    "City": "Seattle",
    "State": "WA",
    "zip": 98118,
    "Long": -122.284209,
    "Lat": 47.5559904,
    "gid": 34
  },
  {
    "BusinessNames": "Bissell Barber",
    "Address": "103 Bellevue Ave. E",
    "Address2": "",
    "City": "Seattle",
    "State": "WA",
    "zip": 98102,
    "Long": -122.3271159,
    "Lat": 47.6187413,
    "gid": 35
  },
  {
    "BusinessNames": "Blue Heron Cafe",
    "Address": "4001 Gilman W",
    "Address2": "",
    "City": "Seattle",
    "State": "WA",
    "zip": 98199,
    "Long": -122.3869531,
    "Lat": 47.65593,
    "gid": 36
  },
  {
    "BusinessNames": "Blue Nile Restaurant",
    "Address": "452 12th Ave.",
    "Address2": "",
    "City": "Seattle",
    "State": "WA",
    "zip": 98122,
    "Long": -122.316512,
    "Lat": 47.6057289,
    "gid": 37
  },
  {
    "BusinessNames": "Bodytonic Pilates",
    "Address": "89 Yesler Way",
    "Address2": "#304",
    "City": "Seattle",
    "State": "WA",
    "zip": 98104,
    "Long": -122.3345585,
    "Lat": 47.6014979,
    "gid": 38
  },
  {
    "BusinessNames": "Boru Childcare",
    "Address": "6542 29th Ave. S",
    "Address2": "",
    "City": "Seattle",
    "State": "WA",
    "zip": 98108,
    "Long": -122.2956165,
    "Lat": 47.5431649,
    "gid": 39
  },
  {
    "BusinessNames": "Broadway Nails",
    "Address": "219 Broadway E",
    "Address2": "#29",
    "City": "Seattle",
    "State": "WA",
    "zip": 98102,
    "Long": -122.3212986,
    "Lat": 47.6205778,
    "gid": 40
  },
  {
    "BusinessNames": "By’s Drive In",
    "Address": "2901 Fourth Ave. S",
    "Address2": "",
    "City": "Seattle",
    "State": "WA",
    "zip": 98134,
    "Long": -122.3297654,
    "Lat": 47.5775253,
    "gid": 41
  },
  {
    "BusinessNames": "BZ Port Trucking",
    "Address": "650 S Orcas St.",
    "Address2": "Suite 214",
    "City": "Seattle",
    "State": "WA",
    "zip": 98108,
    "Long": -122.3251523,
    "Lat": 47.5520122,
    "gid": 42
  },
  {
    "BusinessNames": "Cafe Avole",
    "Address": "6630 Rainier Ave. S",
    "Address2": "",
    "City": "Seattle",
    "State": "WA",
    "zip": 98118,
    "Long": -122.2726068,
    "Lat": 47.5425858,
    "gid": 43
  },
  {
    "BusinessNames": "Cafe Banh Mi",
    "Address": "10700 Meridan  Ave. N",
    "Address2": "Unit 106",
    "City": "Seattle",
    "State": "WA",
    "zip": 98133,
    "Long": -122.3327845,
    "Lat": 47.7072902,
    "gid": 44
  },
  {
    "BusinessNames": "Cafe Ibex",
    "Address": "3219 Martin Luther King Jr Way S",
    "Address2": "",
    "City": "Seattle",
    "State": "WA",
    "zip": 98144,
    "Long": -122.2974334,
    "Lat": 47.5742596,
    "gid": 45
  },
  {
    "BusinessNames": "Cafe Opla",
    "Address": "2200 Alaskan Way",
    "Address2": "Suite 120",
    "City": "Seattle",
    "State": "WA",
    "zip": 98121,
    "Long": -122.347786,
    "Lat": 47.6111996,
    "gid": 46
  },
  {
    "BusinessNames": "Café Racer",
    "Address": "5828 Roosevelt Way NE",
    "Address2": "",
    "City": "Seattle",
    "State": "WA",
    "zip": 98105,
    "Long": -122.3171431,
    "Lat": 47.6714663,
    "gid": 47
  },
  {
    "BusinessNames": "Cafe Red",
    "Address": "7148 Martin Luther King Jr Way S",
    "Address2": "",
    "City": "Seattle",
    "State": "WA",
    "zip": 98118,
    "Long": -122.2809353,
    "Lat": 47.5374953,
    "gid": 48
  },
  {
    "BusinessNames": "Cafe Soleil",
    "Address": "1400 34th Ave.",
    "Address2": "",
    "City": "Seattle",
    "State": "WA",
    "zip": 98122,
    "Long": -122.2891134,
    "Lat": 47.6129973,
    "gid": 49
  },
  {
    "BusinessNames": "Canton Noodle House",
    "Address": "6008 Martin Luther King Jr Way S",
    "Address2": "",
    "City": "Seattle",
    "State": "WA",
    "zip": 98118,
    "Long": -122.2846347,
    "Lat": 47.5475499,
    "gid": 50
  },
  {
    "BusinessNames": "CDFD Childcare",
    "Address": "6123A 28th Ave. S",
    "Address2": "",
    "City": "Seattle",
    "State": "WA",
    "zip": 98108,
    "Long": -122.297593,
    "Lat": 47.5470339,
    "gid": 51
  },
  {
    "BusinessNames": "Central Barber Shop",
    "Address": "308 22nd Ave. S",
    "Address2": "Suite 102",
    "City": "Seattle",
    "State": "WA",
    "zip": 98144,
    "Long": -122.3028732,
    "Lat": 47.599824,
    "gid": 52
  },
  {
    "BusinessNames": "CHATIME",
    "Address": "6014 Martin Luther King Jr Way S",
    "Address2": "",
    "City": "Seattle",
    "State": "WA",
    "zip": 98118,
    "Long": -122.285644,
    "Lat": 47.5475182,
    "gid": 53
  },
  {
    "BusinessNames": "Che Dessert Lounge",
    "Address": "7101 Martin Luther king Jr Way S",
    "Address2": "Suite 102",
    "City": "Seattle",
    "State": "WA",
    "zip": 98118,
    "Long": -122.2828663,
    "Lat": 47.5384043,
    "gid": 54
  },
  {
    "BusinessNames": "Chuan BBQ",
    "Address": "7714 Aurora Ave. N",
    "Address2": "",
    "City": "Seattle",
    "State": "WA",
    "zip": 98103,
    "Long": -122.3441835,
    "Lat": 47.6852866,
    "gid": 55
  },
  {
    "BusinessNames": "Citra",
    "Address": "4730 University Way NE",
    "Address2": "#105",
    "City": "Seattle",
    "State": "WA",
    "zip": 98105,
    "Long": -122.312879,
    "Lat": 47.663866,
    "gid": 56
  },
  {
    "BusinessNames": "Classy Beauty School",
    "Address": "1231 S Jackson St.",
    "Address2": "",
    "City": "Seattle",
    "State": "WA",
    "zip": 98144,
    "Long": -122.3158528,
    "Lat": 47.5990683,
    "gid": 57
  },
  {
    "BusinessNames": "Clover Art",
    "Address": "85 Pike St.",
    "Address2": "Room 500",
    "City": "Seattle",
    "State": "WA",
    "zip": 98101,
    "Long": -122.3405616,
    "Lat": 47.6084268,
    "gid": 58
  },
  {
    "BusinessNames": "Coco's Cuts and Colors",
    "Address": "2219 Second Ave.",
    "Address2": "Suite A",
    "City": "Seattle",
    "State": "WA",
    "zip": 98121,
    "Long": -122.3452097,
    "Lat": 47.613514,
    "gid": 59
  },
  {
    "BusinessNames": "Columbia City Fitness Center",
    "Address": "4525 Rainier Ave. S",
    "Address2": "",
    "City": "Seattle",
    "State": "WA",
    "zip": 98118,
    "Long": -122.2880237,
    "Lat": 47.5621473,
    "gid": 60
  },
  {
    "BusinessNames": "Columbia City Preschool",
    "Address": "3818 S Angeline St.",
    "Address2": "",
    "City": "Seattle",
    "State": "WA",
    "zip": 98118,
    "Long": -122.2841515,
    "Lat": 47.5597065,
    "gid": 61
  },
  {
    "BusinessNames": "Combat Arts Academy of Seattle",
    "Address": "5050 Delridge Way SW",
    "Address2": "",
    "City": "Seattle",
    "State": "WA",
    "zip": 98106,
    "Long": -122.3625385,
    "Lat": 47.555794,
    "gid": 62
  },
  {
    "BusinessNames": "Dandylion Restaurant",
    "Address": "532 Queen Anne Ave. N",
    "Address2": "",
    "City": "Seattle",
    "State": "WA",
    "zip": 98109,
    "Long": -122.3565198,
    "Lat": 47.624316,
    "gid": 63
  },
  {
    "BusinessNames": "Dante’s Inferno Dogs",
    "Address": "10920 Whitman Ave. N",
    "Address2": "",
    "City": "Seattle",
    "State": "WA",
    "zip": 98133,
    "Long": -122.3458307,
    "Lat": 47.7085177,
    "gid": 64
  },
  {
    "BusinessNames": "Dao’s Kitchen",
    "Address": "6519 Fourth Ave. S",
    "Address2": "",
    "City": "Seattle",
    "State": "WA",
    "zip": 98108,
    "Long": -122.329989,
    "Lat": 47.5446568,
    "gid": 65
  },
  {
    "BusinessNames": "DeliNoMore",
    "Address": "1118 Fifth Ave.",
    "Address2": "",
    "City": "Seattle",
    "State": "WA",
    "zip": 98101,
    "Long": -122.3326553,
    "Lat": 47.6079196,
    "gid": 66
  },
  {
    "BusinessNames": "Delish Ethiopian Cuisine",
    "Address": "5701 Rainer Ave. S",
    "Address2": "Suite A",
    "City": "Seattle",
    "State": "WA",
    "zip": 98118,
    "Long": -122.2778628,
    "Lat": 47.5509867,
    "gid": 67
  },
  {
    "BusinessNames": "Detour Espresso",
    "Address": "2006 Rainier Ave. S",
    "Address2": "",
    "City": "Seattle",
    "State": "WA",
    "zip": 98144,
    "Long": -122.3031306,
    "Lat": 47.5853486,
    "gid": 68
  },
  {
    "BusinessNames": "Dim Sum House Inc",
    "Address": "4860 Beacon Ave. S",
    "Address2": "",
    "City": "Seattle",
    "State": "WA",
    "zip": 98108,
    "Long": -122.3040979,
    "Lat": 47.5591633,
    "gid": 69
  },
  {
    "BusinessNames": "Diva Nails",
    "Address": "12308 Lake City Way NE",
    "Address2": "",
    "City": "Seattle",
    "State": "WA",
    "zip": 98125,
    "Long": -122.295779,
    "Lat": 47.7178233,
    "gid": 70
  },
  {
    "BusinessNames": "Dong Thap Noodles",
    "Address": "303 12th Ave. S",
    "Address2": "",
    "City": "Seattle",
    "State": "WA",
    "zip": 98144,
    "Long": -122.3174451,
    "Lat": 47.5997092,
    "gid": 71
  },
  {
    "BusinessNames": "East African Grocery",
    "Address": "7135 Martin Luther King Jr Way S",
    "Address2": "",
    "City": "Seattle",
    "State": "WA",
    "zip": 98118,
    "Long": -122.2818987,
    "Lat": 47.5379466,
    "gid": 72
  },
  {
    "BusinessNames": "El Parche Colombiano Restaurant",
    "Address": "11740 15th Ave. NE",
    "Address2": "",
    "City": "Seattle",
    "State": "WA",
    "zip": 98125,
    "Long": -122.3120825,
    "Lat": 47.7154303,
    "gid": 73
  },
  {
    "BusinessNames": "Emazing Photography",
    "Address": "114 Alaskan Way S",
    "Address2": "#404",
    "City": "Seattle",
    "State": "WA",
    "zip": 98104,
    "Long": -122.3351159,
    "Lat": 47.6012366,
    "gid": 74
  },
  {
    "BusinessNames": "Emma’s BBQ",
    "Address": "5303 Rainier Ave. S",
    "Address2": "Suite B",
    "City": "Seattle",
    "State": "WA",
    "zip": 98118,
    "Long": -122.2805303,
    "Lat": 47.5535569,
    "gid": 75
  },
  {
    "BusinessNames": "EriStar Building Maintenance LLC",
    "Address": "204 NE 42nd St.",
    "Address2": "",
    "City": "Seattle",
    "State": "WA",
    "zip": 98105,
    "Long": -122.3269788,
    "Lat": 47.6579012,
    "gid": 76
  },
  {
    "BusinessNames": "Ernesto Ybarra Original Art",
    "Address": "85 Pike St.",
    "Address2": "",
    "City": "Seattle",
    "State": "WA",
    "zip": 98101,
    "Long": -122.3405616,
    "Lat": 47.6084268,
    "gid": 77
  },
  {
    "BusinessNames": "F Rock Clothing",
    "Address": "951 Davis Place S",
    "Address2": "Unit 2",
    "City": "Seattle",
    "State": "WA",
    "zip": 98144,
    "Long": -122.3071499,
    "Lat": 47.5930785,
    "gid": 78
  },
  {
    "BusinessNames": "Fade Master",
    "Address": "5999 Rainier Ave. S",
    "Address2": "",
    "City": "Seattle",
    "State": "WA",
    "zip": 98118,
    "Long": -122.2770495,
    "Lat": 47.5475609,
    "gid": 79
  },
  {
    "BusinessNames": "Fancy",
    "Address": "1914 Second Ave.",
    "Address2": "",
    "City": "Seattle",
    "State": "WA",
    "zip": 98101,
    "Long": -122.3408822,
    "Lat": 47.6114611,
    "gid": 80
  },
  {
    "BusinessNames": "Fine Tuning",
    "Address": "14101 Aurora  Ave. N",
    "Address2": "Unit B",
    "City": "Seattle",
    "State": "WA",
    "zip": 98133,
    "Long": -122.3460617,
    "Lat": 47.7311452,
    "gid": 81
  },
  {
    "BusinessNames": "Frank's Barber and Beauty Salon",
    "Address": "1720 S Jackson",
    "Address2": "",
    "City": "Seattle",
    "State": "WA",
    "zip": 98144,
    "Long": -122.3093402,
    "Lat": 47.5994446,
    "gid": 82
  },
  {
    "BusinessNames": "French Mornings Preschool",
    "Address": "3400 16th Ave. W",
    "Address2": "",
    "City": "Seattle",
    "State": "WA",
    "zip": 98119,
    "Long": -122.3771806,
    "Lat": 47.6505048,
    "gid": 83
  },
  {
    "BusinessNames": "Full Tilt Columbia City",
    "Address": "5041 Rainier Ave. S",
    "Address2": "#105",
    "City": "Seattle",
    "State": "WA",
    "zip": 98118,
    "Long": -122.284209,
    "Lat": 47.5559904,
    "gid": 84
  },
  {
    "BusinessNames": "Geni's Ethiopian Corner",
    "Address": "501 Second Ave. W",
    "Address2": "",
    "City": "Seattle",
    "State": "WA",
    "zip": 98119,
    "Long": -122.3596787,
    "Lat": 47.6234619,
    "gid": 85
  },
  {
    "BusinessNames": "Girls Gone BBQ",
    "Address": "4611 36th Ave. SW",
    "Address2": "",
    "City": "Seattle",
    "State": "WA",
    "zip": 98106,
    "Long": -122.3779386,
    "Lat": 47.5617161,
    "gid": 86
  },
  {
    "BusinessNames": "Golden Daisy Restaurant",
    "Address": "2518 Beacon Ave. S",
    "Address2": "",
    "City": "Seattle",
    "State": "WA",
    "zip": 98144,
    "Long": -122.3130782,
    "Lat": 47.5805262,
    "gid": 87
  },
  {
    "BusinessNames": "Golden Nails & Spa",
    "Address": "527 First Ave. W",
    "Address2": "",
    "City": "Seattle",
    "State": "WA",
    "zip": 98178,
    "Long": -122.3581976,
    "Lat": 47.6240871,
    "gid": 88
  },
  {
    "BusinessNames": "Greenfire Products",
    "Address": "1531 Melrose Ave.",
    "Address2": "",
    "City": "Seattle",
    "State": "WA",
    "zip": 98122,
    "Long": -122.3281061,
    "Lat": 47.6147749,
    "gid": 89
  },
  {
    "BusinessNames": "Gyro's Place",
    "Address": "1501 Fourth Ave.",
    "Address2": "#109",
    "City": "Seattle",
    "State": "WA",
    "zip": 98101,
    "Long": -122.3376088,
    "Lat": 47.6102538,
    "gid": 90
  },
  {
    "BusinessNames": "Hairapy by Natalia",
    "Address": "816 First Ave.",
    "Address2": "Suite 2",
    "City": "Seattle",
    "State": "WA",
    "zip": 98104,
    "Long": -122.3350525,
    "Lat": 47.6037758,
    "gid": 91
  },
  {
    "BusinessNames": "Haircare by Asyah",
    "Address": "3807 S Ferdinand St.",
    "Address2": "",
    "City": "Seattle",
    "State": "WA",
    "zip": 98118,
    "Long": -122.284554,
    "Lat": 47.5577201,
    "gid": 92
  },
  {
    "BusinessNames": "Hamdi Home Daycare",
    "Address": "2815 S Nevada St.",
    "Address2": "",
    "City": "Seattle",
    "State": "WA",
    "zip": 98108,
    "Long": -122.2976904,
    "Lat": 47.563783,
    "gid": 93
  },
  {
    "BusinessNames": "HardWok Cafe",
    "Address": "1207 S Jackson St.",
    "Address2": "#B110",
    "City": "Seattle",
    "State": "WA",
    "zip": 98144,
    "Long": -122.3165515,
    "Lat": 47.5988735,
    "gid": 94
  },
  {
    "BusinessNames": "Hare Salon",
    "Address": "5400 Leary Ave. NW",
    "Address2": "Suite 10",
    "City": "Seattle",
    "State": "WA",
    "zip": 98107,
    "Long": -122.382315,
    "Lat": 47.6671574,
    "gid": 95
  },
  {
    "BusinessNames": "Hawaii General Store & Travel",
    "Address": "258 NE 45th St.",
    "Address2": "",
    "City": "Seattle",
    "State": "WA",
    "zip": 98105,
    "Long": -122.3257545,
    "Lat": 47.6615222,
    "gid": 96
  },
  {
    "BusinessNames": "Hella Happy",
    "Address": "2812 E Madison St.",
    "Address2": "",
    "City": "Seattle",
    "State": "WA",
    "zip": 98112,
    "Long": -122.2959087,
    "Lat": 47.6239525,
    "gid": 97
  },
  {
    "BusinessNames": "Hello Bicycle",
    "Address": "3067 Beacon Ave. S",
    "Address2": "",
    "City": "Seattle",
    "State": "WA",
    "zip": 98144,
    "Long": -122.309471,
    "Lat": 47.575293,
    "gid": 98
  },
  {
    "BusinessNames": "Hi B3ar",
    "Address": "900 S Jackson St.",
    "Address2": "#215",
    "City": "Seattle",
    "State": "WA",
    "zip": 98104,
    "Long": -122.3202924,
    "Lat": 47.5994877,
    "gid": 99
  },
  {
    "BusinessNames": "Hill’s Barbershop",
    "Address": "601 Second Ave.",
    "Address2": "Unit B",
    "City": "Seattle",
    "State": "WA",
    "zip": 98104,
    "Long": -122.3330275,
    "Lat": 47.6024513,
    "gid": 100
  },
  {
    "BusinessNames": "Hive BE Salon",
    "Address": "816 First Ave.",
    "Address2": "",
    "City": "Seattle",
    "State": "WA",
    "zip": 98104,
    "Long": -122.3350525,
    "Lat": 47.6037758,
    "gid": 101
  },
  {
    "BusinessNames": "Hoang Lan",
    "Address": "7119 Martin Luther King Jr Way S",
    "Address2": "",
    "City": "Seattle",
    "State": "WA",
    "zip": 98118,
    "Long": -122.2821131,
    "Lat": 47.5383819,
    "gid": 102
  },
  {
    "BusinessNames": "Holy Cow Records",
    "Address": "1501 Pike Place",
    "Address2": "Suite 325",
    "City": "Seattle",
    "State": "WA",
    "zip": 98101,
    "Long": -122.3407369,
    "Lat": 47.6086274,
    "gid": 103
  },
  {
    "BusinessNames": "Hood Famous Café & Bar",
    "Address": "504 Fifth Ave. S",
    "Address2": "Suite 107A",
    "City": "Seattle",
    "State": "WA",
    "zip": 98104,
    "Long": -122.3274659,
    "Lat": 47.5981048,
    "gid": 104
  },
  {
    "BusinessNames": "Hue Ky Mi Gia I Corp",
    "Address": "1207 S Jackson St.",
    "Address2": "Suite #B101",
    "City": "Seattle",
    "State": "WA",
    "zip": 98144,
    "Long": -122.3165515,
    "Lat": 47.5988735,
    "gid": 105
  },
  {
    "BusinessNames": "Image Corporation",
    "Address": "9434 Delridge Way SW",
    "Address2": "",
    "City": "Seattle",
    "State": "WA",
    "zip": 98106,
    "Long": -122.3555382,
    "Lat": 47.5182951,
    "gid": 106
  },
  {
    "BusinessNames": "Intermezzo Salon & Spa",
    "Address": "407 W Galer St.",
    "Address2": "",
    "City": "Seattle",
    "State": "WA",
    "zip": 98119,
    "Long": -122.3622466,
    "Lat": 47.6321712,
    "gid": 107
  },
  {
    "BusinessNames": "International Examiner",
    "Address": "409 Maynard  Ave. S",
    "Address2": "#203",
    "City": "Seattle",
    "State": "WA",
    "zip": 98104,
    "Long": -122.325271,
    "Lat": 47.5988628,
    "gid": 108
  },
  {
    "BusinessNames": "International Model Toys",
    "Address": "524 S King St.",
    "Address2": "",
    "City": "Seattle",
    "State": "WA",
    "zip": 98104,
    "Long": -122.3266334,
    "Lat": 47.5985012,
    "gid": 109
  },
  {
    "BusinessNames": "Iris Cutler LLC",
    "Address": "5410 California  Ave. SW",
    "Address2": "#204",
    "City": "Seattle",
    "State": "WA",
    "zip": 98136,
    "Long": -122.3865126,
    "Lat": 47.5534595,
    "gid": 110
  },
  {
    "BusinessNames": "Ironsteak",
    "Address": "628 S Weller St.",
    "Address2": "",
    "City": "Seattle",
    "State": "WA",
    "zip": 98104,
    "Long": -122.325261,
    "Lat": 47.5976617,
    "gid": 111
  },
  {
    "BusinessNames": "J Styles Barbershop",
    "Address": "3847 Rainier Ave. S",
    "Address2": "",
    "City": "Seattle",
    "State": "WA",
    "zip": 98118,
    "Long": -122.2900595,
    "Lat": 47.5685773,
    "gid": 112
  },
  {
    "BusinessNames": "Jalanne Family Childcare",
    "Address": "7017 Holly Park Dr. S",
    "Address2": "",
    "City": "Seattle",
    "State": "WA",
    "zip": 98118,
    "Long": -122.288266,
    "Lat": 47.5391122,
    "gid": 113
  },
  {
    "BusinessNames": "Jana Designs",
    "Address": "5715 36th Ave. NE",
    "Address2": "",
    "City": "Seattle",
    "State": "WA",
    "zip": 98105,
    "Long": -122.2894303,
    "Lat": 47.6708523,
    "gid": 114
  },
  {
    "BusinessNames": "Jasmine Thai Restaurant",
    "Address": "1530 Post Alley",
    "Address2": "#6",
    "City": "Seattle",
    "State": "WA",
    "zip": 98101,
    "Long": -122.3410995,
    "Lat": 47.6093656,
    "gid": 115
  },
  {
    "BusinessNames": "JoJo Hair Salon",
    "Address": "202 12th Ave.",
    "Address2": "",
    "City": "Seattle",
    "State": "WA",
    "zip": 98144,
    "Long": -122.3166448,
    "Lat": 47.6036047,
    "gid": 116
  },
  {
    "BusinessNames": "Joseph's Elite Image",
    "Address": "5015 S Barton Place",
    "Address2": "",
    "City": "Seattle",
    "State": "WA",
    "zip": 98118,
    "Long": -122.2702789,
    "Lat": 47.519896,
    "gid": 117
  },
  {
    "BusinessNames": "Jose's Taqueria",
    "Address": "12334 Lake City Way NE",
    "Address2": "",
    "City": "Seattle",
    "State": "WA",
    "zip": 98125,
    "Long": -122.2955008,
    "Lat": 47.7184417,
    "gid": 118
  },
  {
    "BusinessNames": "Julie's Garden Restaurant",
    "Address": "81 Yesler Way",
    "Address2": "",
    "City": "Seattle",
    "State": "WA",
    "zip": 98104,
    "Long": -122.3351543,
    "Lat": 47.6015644,
    "gid": 119
  },
  {
    "BusinessNames": "Juneau Street market",
    "Address": "5901 California Ave. SW",
    "Address2": "",
    "City": "Seattle",
    "State": "WA",
    "zip": 98136,
    "Long": -122.3873482,
    "Lat": 47.5501583,
    "gid": 120
  },
  {
    "BusinessNames": "Juneau Street market",
    "Address": "4527 University Way NE",
    "Address2": "",
    "City": "Seattle",
    "State": "WA",
    "zip": 98105,
    "Long": -122.3132578,
    "Lat": 47.6621033,
    "gid": 121
  },
  {
    "BusinessNames": "K O Fitness",
    "Address": "920 N 34th St.",
    "Address2": "",
    "City": "Seattle",
    "State": "WA",
    "zip": 98103,
    "Long": -122.3461755,
    "Lat": 47.6493391,
    "gid": 122
  },
  {
    "BusinessNames": "Kawaii Nail",
    "Address": "8216 35th Ave. NE",
    "Address2": "",
    "City": "Seattle",
    "State": "WA",
    "zip": 98115,
    "Long": -122.2901664,
    "Lat": 47.689065,
    "gid": 123
  },
  {
    "BusinessNames": "Kendi Studio",
    "Address": "85 Pike St.",
    "Address2": "",
    "City": "Seattle",
    "State": "WA",
    "zip": 98101,
    "Long": -122.3405616,
    "Lat": 47.6084268,
    "gid": 124
  },
  {
    "BusinessNames": "Kitchen Istanbul",
    "Address": "1744 NW Market St.",
    "Address2": "",
    "City": "Seattle",
    "State": "WA",
    "zip": 98107,
    "Long": -122.3809583,
    "Lat": 47.6689625,
    "gid": 125
  },
  {
    "BusinessNames": "L. Mariee Boutique",
    "Address": "1823 Terry Ave.",
    "Address2": "Suite 105",
    "City": "Seattle",
    "State": "WA",
    "zip": 98101,
    "Long": -122.333458,
    "Lat": 47.6158501,
    "gid": 126
  },
  {
    "BusinessNames": "La Sirena Rosa",
    "Address": "1501 Western Ave.",
    "Address2": "#201",
    "City": "Seattle",
    "State": "WA",
    "zip": 98101,
    "Long": -122.3415875,
    "Lat": 47.6083904,
    "gid": 127
  },
  {
    "BusinessNames": "Lashes a la Mode",
    "Address": "9451 35th Ave. SW",
    "Address2": "Unit 1",
    "City": "Seattle",
    "State": "WA",
    "zip": 98146,
    "Long": -122.3773369,
    "Lat": 47.5177937,
    "gid": 128
  },
  {
    "BusinessNames": "Lily´s Salvadorean Catering",
    "Address": "5031 Chris Curtis Way",
    "Address2": "",
    "City": "Seattle",
    "State": "WA",
    "zip": 98105,
    "Long": -122.31307,
    "Lat": 47.6657707,
    "gid": 129
  },
  {
    "BusinessNames": "Lisa Tsujikawa Noji Inc",
    "Address": "2518 4th Ave.",
    "Address2": "",
    "City": "Seattle",
    "State": "WA",
    "zip": 98121,
    "Long": -122.3466329,
    "Lat": 47.6172419,
    "gid": 130
  },
  {
    "BusinessNames": "Lou Henry Hoover",
    "Address": "322 10th Ave. E",
    "Address2": "Apt D1",
    "City": "Seattle",
    "State": "WA",
    "zip": 98102,
    "Long": -122.3196126,
    "Lat": 47.6218213,
    "gid": 131
  },
  {
    "BusinessNames": "LT Design",
    "Address": "85 Pike St.",
    "Address2": "",
    "City": "Seattle",
    "State": "WA",
    "zip": 98101,
    "Long": -122.3405616,
    "Lat": 47.6084268,
    "gid": 132
  },
  {
    "BusinessNames": "Lucke By Keisha",
    "Address": "3610 S Edmunds",
    "Address2": "",
    "City": "Seattle",
    "State": "WA",
    "zip": 98118,
    "Long": -122.286923,
    "Lat": 47.5588887,
    "gid": 133
  },
  {
    "BusinessNames": "Lucky Chinese Restaurant",
    "Address": "5807 Fourth Ave. S",
    "Address2": "",
    "City": "Seattle",
    "State": "WA",
    "zip": 98108,
    "Long": -122.3299628,
    "Lat": 47.5508167,
    "gid": 134
  },
  {
    "BusinessNames": "Luna Azul",
    "Address": "8552 Greenwood Ave. N",
    "Address2": "",
    "City": "Seattle",
    "State": "WA",
    "zip": 98103,
    "Long": -122.3549533,
    "Lat": 47.6914427,
    "gid": 135
  },
  {
    "BusinessNames": "Luso Food & Wine",
    "Address": "8218 Greenwood  Ave. N",
    "Address2": "",
    "City": "Seattle",
    "State": "WA",
    "zip": 98103,
    "Long": -122.3550545,
    "Lat": 47.6890051,
    "gid": 136
  },
  {
    "BusinessNames": "Madison Avenue Salon",
    "Address": "2701 E Madison St.",
    "Address2": "",
    "City": "Seattle",
    "State": "WA",
    "zip": 98112,
    "Long": -122.2972871,
    "Lat": 47.6225807,
    "gid": 137
  },
  {
    "BusinessNames": "Magus Books",
    "Address": "1498 NE 42nd St.",
    "Address2": "",
    "City": "Seattle",
    "State": "WA",
    "zip": 98105,
    "Long": -122.3121298,
    "Lat": 47.658687,
    "gid": 138
  },
  {
    "BusinessNames": "Mala & Satay",
    "Address": "224 Fairview Ave. N",
    "Address2": "",
    "City": "Seattle",
    "State": "WA",
    "zip": 98109,
    "Long": -122.3339189,
    "Lat": 47.6202818,
    "gid": 139
  },
  {
    "BusinessNames": "Maleda Grocery & Deli",
    "Address": "3810 S Edmunds St.",
    "Address2": "",
    "City": "Seattle",
    "State": "WA",
    "zip": 98118,
    "Long": -122.2849957,
    "Lat": 47.5588262,
    "gid": 140
  },
  {
    "BusinessNames": "Mama Luna LLC",
    "Address": "316 17th Ave. S",
    "Address2": "",
    "City": "Seattle",
    "State": "WA",
    "zip": 98144,
    "Long": -122.3100231,
    "Lat": 47.5995149,
    "gid": 141
  },
  {
    "BusinessNames": "Market Magic & Novelty Inc",
    "Address": "1501 Pike Place",
    "Address2": "#427",
    "City": "Seattle",
    "State": "WA",
    "zip": 98101,
    "Long": -122.3407369,
    "Lat": 47.6086274,
    "gid": 142
  },
  {
    "BusinessNames": "Marrakesh Moroccan Restaurant of Seattle",
    "Address": "2334 2nd Ave.",
    "Address2": "",
    "City": "Seattle",
    "State": "WA",
    "zip": 98121,
    "Long": -122.3466991,
    "Lat": 47.6148354,
    "gid": 143
  },
  {
    "BusinessNames": "Massive Monkees Studio: The Beacon",
    "Address": "662 S King St.",
    "Address2": "",
    "City": "Seattle",
    "State": "WA",
    "zip": 98104,
    "Long": -122.3243332,
    "Lat": 47.5984591,
    "gid": 144
  },
  {
    "BusinessNames": "McComb Sound",
    "Address": "2230 First Ave. S",
    "Address2": "",
    "City": "Seattle",
    "State": "WA",
    "zip": 98134,
    "Long": -122.3336184,
    "Lat": 47.5830923,
    "gid": 145
  },
  {
    "BusinessNames": "Meskel Ethiopian Restaurant",
    "Address": "2605 E Cherry St.",
    "Address2": "",
    "City": "Seattle",
    "State": "WA",
    "zip": 98122,
    "Long": -122.2985799,
    "Lat": 47.6078014,
    "gid": 146
  },
  {
    "BusinessNames": "Milan Hair & Spa",
    "Address": "1235 S Jackson St.",
    "Address2": "",
    "City": "Seattle",
    "State": "WA",
    "zip": 98144,
    "Long": -122.3157543,
    "Lat": 47.5989749,
    "gid": 147
  },
  {
    "BusinessNames": "Mimi's Bakery & Flower",
    "Address": "4809 Beacon Ave. S",
    "Address2": "",
    "City": "Seattle",
    "State": "WA",
    "zip": 98108,
    "Long": -122.3048888,
    "Lat": 47.5592966,
    "gid": 148
  },
  {
    "BusinessNames": "Mjod Enterprises",
    "Address": "3310 W McGraw St.",
    "Address2": "",
    "City": "Seattle",
    "State": "WA",
    "zip": 98199,
    "Long": -122.4002141,
    "Lat": 47.6398986,
    "gid": 149
  },
  {
    "BusinessNames": "Modern Japanese Cuisine",
    "Address": "6108 Phinney Ave. N",
    "Address2": "",
    "City": "Seattle",
    "State": "WA",
    "zip": 98103,
    "Long": -122.3541458,
    "Lat": 47.6733499,
    "gid": 150
  },
  {
    "BusinessNames": "Moe Vegan",
    "Address": "901 Occidental Ave. S",
    "Address2": "Suite #404",
    "City": "Seattle",
    "State": "WA",
    "zip": 98134,
    "Long": -122.3338353,
    "Lat": 47.5948693,
    "gid": 151
  },
  {
    "BusinessNames": "MoMo's Kebab",
    "Address": "8520 14th Ave. S",
    "Address2": "",
    "City": "Seattle",
    "State": "WA",
    "zip": 98108,
    "Long": -122.314564,
    "Lat": 47.5267399,
    "gid": 152
  },
  {
    "BusinessNames": "Moonlit Beauty and Wellness",
    "Address": "5101 25th Ave. NE",
    "Address2": "Suite 20",
    "City": "Seattle",
    "State": "WA",
    "zip": 98105,
    "Long": -122.3009607,
    "Lat": 47.6677546,
    "gid": 153
  },
  {
    "BusinessNames": "Moxie Beauty Boutique",
    "Address": "252 NE 45 the St.",
    "Address2": "",
    "City": "Seattle",
    "State": "WA",
    "zip": 98115,
    "Long": -122.3259452,
    "Lat": 47.6615263,
    "gid": 154
  },
  {
    "BusinessNames": "Mr. Lu Seafood & Burger",
    "Address": "4752 University Way NE",
    "Address2": "",
    "City": "Seattle",
    "State": "WA",
    "zip": 98105,
    "Long": -122.312901,
    "Lat": 47.66466,
    "gid": 155
  },
  {
    "BusinessNames": "Mystic Kombucha",
    "Address": "2215 W Commodore Way",
    "Address2": "",
    "City": "Seattle",
    "State": "WA",
    "zip": 98199,
    "Long": -122.3854172,
    "Lat": 47.6598796,
    "gid": 156
  },
  {
    "BusinessNames": "Najla Family Child Care",
    "Address": "6548 Shaffer Ave. S",
    "Address2": "",
    "City": "Seattle",
    "State": "WA",
    "zip": 98108,
    "Long": -122.2940243,
    "Lat": 47.5432321,
    "gid": 157
  },
  {
    "BusinessNames": "Nam Phuong Book Store",
    "Address": "1032 S Jackson St. B",
    "Address2": "",
    "City": "Seattle",
    "State": "WA",
    "zip": 98104,
    "Long": -122.3181884,
    "Lat": 47.5993723,
    "gid": 158
  },
  {
    "BusinessNames": "Nepantla Cultural Arts Gallery",
    "Address": "9414 Delridge Way SW",
    "Address2": "",
    "City": "Seattle",
    "State": "WA",
    "zip": 98106,
    "Long": -122.3561093,
    "Lat": 47.5187461,
    "gid": 159
  },
  {
    "BusinessNames": "Neptune Furniture",
    "Address": "85 Pike St.",
    "Address2": "",
    "City": "Seattle",
    "State": "WA",
    "zip": 98101,
    "Long": -122.3405616,
    "Lat": 47.6084268,
    "gid": 160
  },
  {
    "BusinessNames": "New Century Tea Gallery",
    "Address": "416 Maynard Ave. S",
    "Address2": "",
    "City": "Seattle",
    "State": "WA",
    "zip": 98104,
    "Long": -122.3247153,
    "Lat": 47.5986546,
    "gid": 161
  },
  {
    "BusinessNames": "NextLevel Personal Training Studio",
    "Address": "3145 West Government Way",
    "Address2": "",
    "City": "Seattle",
    "State": "WA",
    "zip": 98199,
    "Long": -122.3980261,
    "Lat": 47.6602871,
    "gid": 162
  },
  {
    "BusinessNames": "Northwest Wushu Academy",
    "Address": "815 S Weller St.",
    "Address2": "#107",
    "City": "Seattle",
    "State": "WA",
    "zip": 98104,
    "Long": -122.32198,
    "Lat": 47.597251,
    "gid": 163
  },
  {
    "BusinessNames": "Oaktree Teriyaki",
    "Address": "10002 Aurora Ave. N",
    "Address2": "Suite 40",
    "City": "Seattle",
    "State": "WA",
    "zip": 98133,
    "Long": -122.3441797,
    "Lat": 47.7022823,
    "gid": 164
  },
  {
    "BusinessNames": "Old Habits Barbershop",
    "Address": "3100 Airport way S",
    "Address2": "14-100",
    "City": "Seattle",
    "State": "WA",
    "zip": 98134,
    "Long": -122.3210274,
    "Lat": 47.5751666,
    "gid": 165
  },
  {
    "BusinessNames": "Olympia Il Pizza and Spaghetti House",
    "Address": "4501 Interlake Ave. N",
    "Address2": "",
    "City": "Seattle",
    "State": "WA",
    "zip": 98103,
    "Long": -122.3409368,
    "Lat": 47.6619365,
    "gid": 166
  },
  {
    "BusinessNames": "O'Malley Photographers",
    "Address": "4017 48th Ave. SW",
    "Address2": "",
    "City": "Seattle",
    "State": "WA",
    "zip": 98116,
    "Long": -122.3937557,
    "Lat": 47.5678902,
    "gid": 167
  },
  {
    "BusinessNames": "Othello Station Pharmacy",
    "Address": "4219 S Othello St.",
    "Address2": "#105F",
    "City": "Seattle",
    "State": "WA",
    "zip": 98118,
    "Long": -122.2800925,
    "Lat": 47.5364491,
    "gid": 168
  },
  {
    "BusinessNames": "Palacia Chamberlain Lee Salon",
    "Address": "12056 15th Ave. NE",
    "Address2": "C-1",
    "City": "Seattle",
    "State": "WA",
    "zip": 98125,
    "Long": -122.3122561,
    "Lat": 47.7174473,
    "gid": 169
  },
  {
    "BusinessNames": "Pam's Kitchen",
    "Address": "1715 N 45th St.",
    "Address2": "",
    "City": "Seattle",
    "State": "WA",
    "zip": 98103,
    "Long": -122.3366507,
    "Lat": 47.6611635,
    "gid": 170
  },
  {
    "BusinessNames": "Pasta Joe's",
    "Address": "1420 S Cloverdale St.",
    "Address2": "Unit C",
    "City": "Seattle",
    "State": "WA",
    "zip": 98108,
    "Long": -122.3139601,
    "Lat": 47.5266298,
    "gid": 171
  },
  {
    "BusinessNames": "Peter Pan Auto Glass",
    "Address": "6903 Rainier Ave. S",
    "Address2": "",
    "City": "Seattle",
    "State": "WA",
    "zip": 98118,
    "Long": -122.2718505,
    "Lat": 47.5404732,
    "gid": 172
  },
  {
    "BusinessNames": "Pho Ba",
    "Address": "415 S 7th Ave.",
    "Address2": "",
    "City": "Seattle",
    "State": "WA",
    "zip": 98104,
    "Long": -122.3238982,
    "Lat": 47.5987502,
    "gid": 173
  },
  {
    "BusinessNames": "Pho Hai Yen",
    "Address": "810 Rainier Ave. S",
    "Address2": "",
    "City": "Seattle",
    "State": "WA",
    "zip": 98144,
    "Long": -122.3107493,
    "Lat": 47.5954752,
    "gid": 174
  },
  {
    "BusinessNames": "Pho Hanoi Restaurant",
    "Address": "9447 Rainier Ave. s",
    "Address2": "",
    "City": "Seattle",
    "State": "WA",
    "zip": 98118,
    "Long": -122.2632296,
    "Lat": 47.5198858,
    "gid": 175
  },
  {
    "BusinessNames": "Pioneer Square D&E",
    "Address": "314 Second Ave. S",
    "Address2": "",
    "City": "Seattle",
    "State": "WA",
    "zip": 98104,
    "Long": -122.3313399,
    "Lat": 47.599534,
    "gid": 176
  },
  {
    "BusinessNames": "Platinum Cuts and Salon",
    "Address": "9434 Delridge Way SW",
    "Address2": "Suite A",
    "City": "Seattle",
    "State": "WA",
    "zip": 98106,
    "Long": -122.3555382,
    "Lat": 47.5182951,
    "gid": 177
  },
  {
    "BusinessNames": "Platinum Plush Fashions",
    "Address": "6511 38th Ave. S",
    "Address2": "",
    "City": "Seattle",
    "State": "WA",
    "zip": 98118,
    "Long": -122.2849058,
    "Lat": 47.543939,
    "gid": 178
  },
  {
    "BusinessNames": "Poke Plus",
    "Address": "811 East Pike St.",
    "Address2": "",
    "City": "Seattle",
    "State": "WA",
    "zip": 98122,
    "Long": -122.3215332,
    "Lat": 47.6137908,
    "gid": 179
  },
  {
    "BusinessNames": "Poke Square",
    "Address": "8511 11th  Ave. NW",
    "Address2": "",
    "City": "Seattle",
    "State": "WA",
    "zip": 98117,
    "Long": -122.3706478,
    "Lat": 47.6910673,
    "gid": 180
  },
  {
    "BusinessNames": "Print Fusion",
    "Address": "11064 Lake City Way NE",
    "Address2": "Suite 4",
    "City": "Seattle",
    "State": "WA",
    "zip": 98125,
    "Long": -122.3001799,
    "Lat": 47.7099967,
    "gid": 181
  },
  {
    "BusinessNames": "Publishing Desk LLC",
    "Address": "85 Pike St.",
    "Address2": "",
    "City": "Seattle",
    "State": "WA",
    "zip": 98101,
    "Long": -122.3405616,
    "Lat": 47.6084268,
    "gid": 182
  },
  {
    "BusinessNames": "Rachel Huss Hair",
    "Address": "4214 Stone Way N",
    "Address2": "",
    "City": "Seattle",
    "State": "WA",
    "zip": 98103,
    "Long": -122.3419236,
    "Lat": 47.6586256,
    "gid": 183
  },
  {
    "BusinessNames": "Rain Cafe",
    "Address": "13200 Aurora Ave. N",
    "Address2": "#C",
    "City": "Seattle",
    "State": "WA",
    "zip": 98133,
    "Long": -122.3432746,
    "Lat": 47.7248023,
    "gid": 184
  },
  {
    "BusinessNames": "Rainier Teriyaki",
    "Address": "3330 Rainier Ave. S",
    "Address2": "Suite A",
    "City": "Seattle",
    "State": "WA",
    "zip": 98144,
    "Long": -122.2936997,
    "Lat": 47.5733002,
    "gid": 185
  },
  {
    "BusinessNames": "Reality Auto Sales",
    "Address": "8101 Aurora Ave. N",
    "Address2": "",
    "City": "Seattle",
    "State": "WA",
    "zip": 98103,
    "Long": -122.3447916,
    "Lat": 47.687997,
    "gid": 186
  },
  {
    "BusinessNames": "Red Bowl",
    "Address": "812 Third Ave.",
    "Address2": "",
    "City": "Seattle",
    "State": "WA",
    "zip": 98104,
    "Long": -122.3327329,
    "Lat": 47.6047272,
    "gid": 187
  },
  {
    "BusinessNames": "Relish",
    "Address": "3701 7th  Ave. S",
    "Address2": "",
    "City": "Seattle",
    "State": "WA",
    "zip": 98134,
    "Long": -122.3244491,
    "Lat": 47.5702701,
    "gid": 188
  },
  {
    "BusinessNames": "Resistencia Coffee",
    "Address": "1249 S Cloverdale St.",
    "Address2": "",
    "City": "Seattle",
    "State": "WA",
    "zip": 98108,
    "Long": -122.3154219,
    "Lat": 47.5263392,
    "gid": 189
  },
  {
    "BusinessNames": "Robin Rosell Salon",
    "Address": "2615 First Ave.",
    "Address2": "",
    "City": "Seattle",
    "State": "WA",
    "zip": 98121,
    "Long": -122.350571,
    "Lat": 47.6153722,
    "gid": 190
  },
  {
    "BusinessNames": "Roq La Rue Gallery",
    "Address": "705A E Pike St.",
    "Address2": "",
    "City": "Seattle",
    "State": "WA",
    "zip": 98122,
    "Long": -122.3230424,
    "Lat": 47.6139171,
    "gid": 191
  },
  {
    "BusinessNames": "Rose's & Siga African Hair Braiding",
    "Address": "6301 Rainier Ave. S",
    "Address2": "",
    "City": "Seattle",
    "State": "WA",
    "zip": 98118,
    "Long": -122.2762202,
    "Lat": 47.5458726,
    "gid": 192
  },
  {
    "BusinessNames": "S&S 23 Beauty salon",
    "Address": "8540 Greenwood  Ave. N",
    "Address2": "",
    "City": "Seattle",
    "State": "WA",
    "zip": 98103,
    "Long": -122.3550203,
    "Lat": 47.6912179,
    "gid": 193
  },
  {
    "BusinessNames": "S/T Hooligans",
    "Address": "4354 Leary Way NW",
    "Address2": "",
    "City": "Seattle",
    "State": "WA",
    "zip": 98107,
    "Long": -122.3656024,
    "Lat": 47.6602226,
    "gid": 194
  },
  {
    "BusinessNames": "Sabando Design",
    "Address": "85 Pike St.",
    "Address2": "",
    "City": "Seattle",
    "State": "WA",
    "zip": 98101,
    "Long": -122.3405616,
    "Lat": 47.6084268,
    "gid": 195
  },
  {
    "BusinessNames": "Sabor Delicioso",
    "Address": "2524 16th  Ave. S",
    "Address2": "",
    "City": "Seattle",
    "State": "WA",
    "zip": 98144,
    "Long": -122.3113797,
    "Lat": 47.5805157,
    "gid": 196
  },
  {
    "BusinessNames": "Safari Njema Restaraunt",
    "Address": "5041 Rainier Ave. S",
    "Address2": "",
    "City": "Seattle",
    "State": "WA",
    "zip": 98118,
    "Long": -122.284209,
    "Lat": 47.5559904,
    "gid": 197
  },
  {
    "BusinessNames": "Salon 206",
    "Address": "2603 S McClellan St.",
    "Address2": "",
    "City": "Seattle",
    "State": "WA",
    "zip": 98144,
    "Long": -122.2990741,
    "Lat": 47.5781461,
    "gid": 198
  },
  {
    "BusinessNames": "Salon Adidez LLC",
    "Address": "3705 S Edmunds St.",
    "Address2": "",
    "City": "Seattle",
    "State": "WA",
    "zip": 98118,
    "Long": -122.2858398,
    "Lat": 47.5585308,
    "gid": 199
  },
  {
    "BusinessNames": "Salon Filament",
    "Address": "2306 24th Ave. E",
    "Address2": "",
    "City": "Seattle",
    "State": "WA",
    "zip": 98112,
    "Long": -122.3017888,
    "Lat": 47.639829,
    "gid": 200
  },
  {
    "BusinessNames": "Salon Nouveau",
    "Address": "2544 Beacon Ave. S",
    "Address2": "",
    "City": "Seattle",
    "State": "WA",
    "zip": 98144,
    "Long": -122.3124377,
    "Lat": 47.5798617,
    "gid": 201
  },
  {
    "BusinessNames": "SD Computer Repair Inc",
    "Address": "1400 S Jackson St.",
    "Address2": "#2",
    "City": "Seattle",
    "State": "WA",
    "zip": 98144,
    "Long": -122.3137635,
    "Lat": 47.5995124,
    "gid": 202
  },
  {
    "BusinessNames": "Seattle Tailor",
    "Address": "1100 E Union St.",
    "Address2": "#1E",
    "City": "Seattle",
    "State": "WA",
    "zip": 98122,
    "Long": -122.3177609,
    "Lat": 47.6131279,
    "gid": 203
  },
  {
    "BusinessNames": "SELEUŠS Chocolates",
    "Address": "1910 First Ave.",
    "Address2": "",
    "City": "Seattle",
    "State": "WA",
    "zip": 98101,
    "Long": -122.3416779,
    "Lat": 47.6106997,
    "gid": 204
  },
  {
    "BusinessNames": "Sell Phone Store",
    "Address": "303 12th Ave. S",
    "Address2": "",
    "City": "Seattle",
    "State": "WA",
    "zip": 98144,
    "Long": -122.3174451,
    "Lat": 47.5997092,
    "gid": 205
  },
  {
    "BusinessNames": "Serenity Housekeeping LLC",
    "Address": "12558 37th  Ave. NE #C",
    "Address2": "",
    "City": "Seattle",
    "State": "WA",
    "zip": 98125,
    "Long": -122.2878394,
    "Lat": 47.720826,
    "gid": 206
  },
  {
    "BusinessNames": "Seward Park Market",
    "Address": "9436 Rainier Ave. S",
    "Address2": "",
    "City": "Seattle",
    "State": "WA",
    "zip": 98118,
    "Long": -122.2634512,
    "Lat": 47.5202643,
    "gid": 207
  },
  {
    "BusinessNames": "Shear Finesse Barbershop",
    "Address": "3611 S Genesee St.",
    "Address2": "",
    "City": "Seattle",
    "State": "WA",
    "zip": 98118,
    "Long": -122.2864522,
    "Lat": 47.563861,
    "gid": 208
  },
  {
    "BusinessNames": "Simply Soulful",
    "Address": "2909-B E Madison St.",
    "Address2": "",
    "City": "Seattle",
    "State": "WA",
    "zip": 98112,
    "Long": -122.2949284,
    "Lat": 47.624056,
    "gid": 209
  },
  {
    "BusinessNames": "Slice Box Pizzas",
    "Address": "1727 First Ave. S",
    "Address2": "",
    "City": "Seattle",
    "State": "WA",
    "zip": 98134,
    "Long": -122.334428,
    "Lat": 47.587402,
    "gid": 210
  },
  {
    "BusinessNames": "SoleMates",
    "Address": "1422 Harvard Ave.",
    "Address2": "",
    "City": "Seattle",
    "State": "WA",
    "zip": 98122,
    "Long": -122.3212073,
    "Lat": 47.6138092,
    "gid": 211
  },
  {
    "BusinessNames": "Somtam Thai",
    "Address": "4736 university Way NE",
    "Address2": "",
    "City": "Seattle",
    "State": "WA",
    "zip": 98105,
    "Long": -122.3128579,
    "Lat": 47.664227,
    "gid": 212
  },
  {
    "BusinessNames": "St Andrews Bar & Grill",
    "Address": "7404 Aurora Ave. N",
    "Address2": "",
    "City": "Seattle",
    "State": "WA",
    "zip": 98103,
    "Long": -122.3441742,
    "Lat": 47.6831366,
    "gid": 213
  },
  {
    "BusinessNames": "Studio Stu",
    "Address": "2217 Fifth Ave.",
    "Address2": "",
    "City": "Seattle",
    "State": "WA",
    "zip": 98121,
    "Long": -122.3425767,
    "Lat": 47.6154311,
    "gid": 214
  },
  {
    "BusinessNames": "SugarPill",
    "Address": "900 E Pine St.",
    "Address2": "",
    "City": "Seattle",
    "State": "WA",
    "zip": 98122,
    "Long": -122.3203906,
    "Lat": 47.6153941,
    "gid": 215
  },
  {
    "BusinessNames": "Sunset Café & Deli",
    "Address": "8115 Rainier Ave. S",
    "Address2": "Suite B",
    "City": "Seattle",
    "State": "WA",
    "zip": 98118,
    "Long": -122.2702611,
    "Lat": 47.529949,
    "gid": 216
  },
  {
    "BusinessNames": "Swift Hair Removal",
    "Address": "4500 Ninth Ave. NE",
    "Address2": "#300",
    "City": "Seattle",
    "State": "WA",
    "zip": 98105,
    "Long": -122.3182094,
    "Lat": 47.6616949,
    "gid": 217
  },
  {
    "BusinessNames": "T. Brooks Quality Cuts",
    "Address": "5222 Rainier Ave. S",
    "Address2": "",
    "City": "Seattle",
    "State": "WA",
    "zip": 98118,
    "Long": -122.2824841,
    "Lat": 47.5554445,
    "gid": 218
  },
  {
    "BusinessNames": "Tan Dinh Deli",
    "Address": "1212 S Main St.",
    "Address2": "Suite A",
    "City": "Seattle",
    "State": "WA",
    "zip": 98144,
    "Long": -122.3164173,
    "Lat": 47.6001372,
    "gid": 219
  },
  {
    "BusinessNames": "Tango Enterprises Inc.",
    "Address": "1500 E Olive Way",
    "Address2": "",
    "City": "Seattle",
    "State": "WA",
    "zip": 98122,
    "Long": -122.3263922,
    "Lat": 47.6178653,
    "gid": 220
  },
  {
    "BusinessNames": "Taqueria El Rincon Express",
    "Address": "8709 14th Ave. S",
    "Address2": "",
    "City": "Seattle",
    "State": "WA",
    "zip": 98108,
    "Long": -122.3151288,
    "Lat": 47.525277,
    "gid": 221
  },
  {
    "BusinessNames": "Taqueria Tehuacan",
    "Address": "7219 Ranier Ave. S",
    "Address2": "",
    "City": "Seattle",
    "State": "WA",
    "zip": 98118,
    "Long": -122.2709853,
    "Lat": 47.537925,
    "gid": 222
  },
  {
    "BusinessNames": "Teriyaki & Wok",
    "Address": "324 Broadway E",
    "Address2": "",
    "City": "Seattle",
    "State": "WA",
    "zip": 98102,
    "Long": -122.3205258,
    "Lat": 47.621819,
    "gid": 223
  },
  {
    "BusinessNames": "Teriyaki Plus",
    "Address": "2100 N Northgate Way",
    "Address2": "Suite B",
    "City": "Seattle",
    "State": "WA",
    "zip": 98133,
    "Long": -122.3335185,
    "Lat": 47.7090338,
    "gid": 224
  },
  {
    "BusinessNames": "Teriyaki Time",
    "Address": "3006 1/2 NE 127th St.",
    "Address2": "",
    "City": "Seattle",
    "State": "WA",
    "zip": 98125,
    "Long": -122.2959718,
    "Lat": 47.7214465,
    "gid": 225
  },
  {
    "BusinessNames": "Thai Curry Simple",
    "Address": "406 Fifth Ave. S",
    "Address2": "",
    "City": "Seattle",
    "State": "WA",
    "zip": 98104,
    "Long": -122.3272383,
    "Lat": 47.5987625,
    "gid": 226
  },
  {
    "BusinessNames": "Thai Star",
    "Address": "1007 Boren Ave.",
    "Address2": "",
    "City": "Seattle",
    "State": "WA",
    "zip": 98104,
    "Long": -122.3255625,
    "Lat": 47.6095452,
    "gid": 227
  },
  {
    "BusinessNames": "Thai Taste",
    "Address": "601 Second Ave.",
    "Address2": "",
    "City": "Seattle",
    "State": "WA",
    "zip": 98104,
    "Long": -122.3330275,
    "Lat": 47.6024513,
    "gid": 228
  },
  {
    "BusinessNames": "Thanh Thanh Cafe",
    "Address": "6033 Martin Luther King Jr Way S",
    "Address2": "",
    "City": "Seattle",
    "State": "WA",
    "zip": 98118,
    "Long": -122.2863711,
    "Lat": 47.5468765,
    "gid": 229
  },
  {
    "BusinessNames": "That Brown Girl Cooks!",
    "Address": "2822 Martin Luther King Jr Way S",
    "Address2": "",
    "City": "Seattle",
    "State": "WA",
    "zip": 98144,
    "Long": -122.2958254,
    "Lat": 47.5775884,
    "gid": 230
  },
  {
    "BusinessNames": "The Postman",
    "Address": "1143 Martin Luther King Jr Way",
    "Address2": "",
    "City": "Seattle",
    "State": "WA",
    "zip": 98122,
    "Long": -122.2964807,
    "Lat": 47.6125301,
    "gid": 231
  },
  {
    "BusinessNames": "The Station Coffee Shop",
    "Address": "1600 S Roberto Maestas Festival St.",
    "Address2": "",
    "City": "Seattle",
    "State": "WA",
    "zip": 98144,
    "Long": -122.3118315,
    "Lat": 47.5795697,
    "gid": 232
  },
  {
    "BusinessNames": "The Uncommon Cottage",
    "Address": "465 N 36th St.",
    "Address2": "",
    "City": "Seattle",
    "State": "WA",
    "zip": 98103,
    "Long": -122.3528735,
    "Lat": 47.6516801,
    "gid": 233
  },
  {
    "BusinessNames": "Thien Phat Restaurant",
    "Address": "3330 Rainier Ave. S",
    "Address2": "",
    "City": "Seattle",
    "State": "WA",
    "zip": 98144,
    "Long": -122.2936997,
    "Lat": 47.5733002,
    "gid": 234
  },
  {
    "BusinessNames": "Time Bistro",
    "Address": "4537B University Way NE",
    "Address2": "",
    "City": "Seattle",
    "State": "WA",
    "zip": 98105,
    "Long": -122.3132683,
    "Lat": 47.6624039,
    "gid": 235
  },
  {
    "BusinessNames": "Timothy De Clue Collection",
    "Address": "1124 First Ave.",
    "Address2": "",
    "City": "Seattle",
    "State": "WA",
    "zip": 98101,
    "Long": -122.3371754,
    "Lat": 47.6059585,
    "gid": 236
  },
  {
    "BusinessNames": "Town Electric, Plumbing & Heating LLC",
    "Address": "1217 S Sullivan St.",
    "Address2": "",
    "City": "Seattle",
    "State": "WA",
    "zip": 98108,
    "Long": -122.3166866,
    "Lat": 47.5270862,
    "gid": 237
  },
  {
    "BusinessNames": "Trevino Beauty Collaborative",
    "Address": "1421 Western Ave.",
    "Address2": "",
    "City": "Seattle",
    "State": "WA",
    "zip": 98101,
    "Long": -122.3408781,
    "Lat": 47.607895,
    "gid": 238
  },
  {
    "BusinessNames": "TTTI Services",
    "Address": "5811 Rainier Ave. S",
    "Address2": "#104",
    "City": "Seattle",
    "State": "WA",
    "zip": 98118,
    "Long": -122.2775221,
    "Lat": 47.5501646,
    "gid": 239
  },
  {
    "BusinessNames": "U DupBop",
    "Address": "4124 University Way NE",
    "Address2": "",
    "City": "Seattle",
    "State": "WA",
    "zip": 98105,
    "Long": -122.3129425,
    "Lat": 47.6576004,
    "gid": 240
  },
  {
    "BusinessNames": "VAM Studios, LLC",
    "Address": "720 N 35th St.",
    "Address2": "Suite 103",
    "City": "Seattle",
    "State": "WA",
    "zip": 98103,
    "Long": -122.3487735,
    "Lat": 47.6506207,
    "gid": 241
  },
  {
    "BusinessNames": "Van Karma",
    "Address": "8953 Aurora Ave. N",
    "Address2": "",
    "City": "Seattle",
    "State": "WA",
    "zip": 98103,
    "Long": -122.3450245,
    "Lat": 47.6939883,
    "gid": 242
  },
  {
    "BusinessNames": "Villa Escondida Mexican Restaurant",
    "Address": "2203 First Ave.",
    "Address2": "",
    "City": "Seattle",
    "State": "WA",
    "zip": 98032,
    "Long": -122.3456578,
    "Lat": 47.6125563,
    "gid": 243
  },
  {
    "BusinessNames": "Warren Moy Motorsports, Inc.",
    "Address": "6301 Beacon Ave. S",
    "Address2": "",
    "City": "Seattle",
    "State": "WA",
    "zip": 98108,
    "Long": -122.3008624,
    "Lat": 47.5462602,
    "gid": 244
  },
  {
    "BusinessNames": "We Free Hearts LLC",
    "Address": "1253 S Cloverdale St.",
    "Address2": "",
    "City": "Seattle",
    "State": "WA",
    "zip": 98108,
    "Long": -122.3153311,
    "Lat": 47.5262969,
    "gid": 245
  },
  {
    "BusinessNames": "Where Ya At",
    "Address": "4332 Leary Way NW",
    "Address2": "",
    "City": "Seattle",
    "State": "WA",
    "zip": 98107,
    "Long": -122.3652374,
    "Lat": 47.6598488,
    "gid": 246
  },
  {
    "BusinessNames": "Whole Body Health",
    "Address": "3272 California Ave. SW",
    "Address2": "",
    "City": "Seattle",
    "State": "WA",
    "zip": 98116,
    "Long": -122.3864561,
    "Lat": 47.5735621,
    "gid": 247
  },
  {
    "BusinessNames": "Winning Edge Academy",
    "Address": "430 Minor Ave.",
    "Address2": "",
    "City": "Seattle",
    "State": "WA",
    "zip": 98109,
    "Long": -122.3325962,
    "Lat": 47.6229289,
    "gid": 248
  },
  {
    "BusinessNames": "Yummy House Bakery",
    "Address": "522 Sixth Ave. S",
    "Address2": "",
    "City": "Seattle",
    "State": "WA",
    "zip": 98104,
    "Long": -122.3260915,
    "Lat": 47.5977323,
    "gid": 249
  },
  {
    "BusinessNames": "Zaytuna Mediterranean Catering",
    "Address": "6711 Martin Luther King Jr Way",
    "Address2": "",
    "City": "Seattle",
    "State": "WA",
    "zip": 98118,
    "Long": -122.2840305,
    "Lat": 47.5419005,
    "gid": 250
  },
  {
    "BusinessNames": "Zheng Cafe",
    "Address": "230 Sixth Ave. N",
    "Address2": "",
    "City": "Seattle",
    "State": "WA",
    "zip": 98109,
    "Long": -122.344695,
    "Lat": 47.62071,
    "gid": 251
  },
  {
    "BusinessNames": "Ziba LLC",
    "Address": "1523 Sixth Ave.",
    "Address2": "",
    "City": "Seattle",
    "State": "WA",
    "zip": 98101,
    "Long": -122.335346,
    "Lat": 47.611717,
    "gid": 252
  }
]